[
    {
        "Altitude(m)": 604221.2289449172,
        "Argument of Periapsis(deg)": 0.0,
        "Eccentricity": 0.0,
        "Inclination(deg)": 60.0,
        "Latitude(deg)": 14.117386240300233,
        "Longitude(deg)": 103.33415197847562,
        "Mean Anomaly(deg)": 16.363600000000012,
        "RAAN(deg)": 195.00000000000003,
        "Satellite Name": "Test1 859",
        "Satellite Number": 859,
        "Semi-Major Axis(m)": 6980739.136638005,
        "Time(s)": 0
    },
    {
        "Altitude(m)": 604235.3707153662,
        "Argument of Periapsis(deg)": 0.00010418945913296404,
        "Eccentricity": 0.0,
        "Inclination(deg)": 60.0,
        "Latitude(deg)": 14.65178303153177,
        "Longitude(deg)": 103.62259903335847,
        "Mean Anomaly(deg)": 16.983706145461838,
        "RAAN(deg)": 194.99957995086024,
        "Satellite Name": "Test1 859",
        "Satellite Number": 859,
        "Semi-Major Axis(m)": 6980739.136638005,
        "Time(s)": 10
    }
]